CTC2_L_00154016-03
1 10062U 22038DJ  26075.70042824  .00000000  00000+0  00000-0 0  9990
2 10062  50.0000 180.0000 0000000   0.0000   0.0000 14.98995063    10
CTC2_L_00154016-04
1 10063U 26541CN  26075.70042824  .00000000  00000+0  00000-0 0  9994
2 10063  50.0000 180.0000 0000000   0.0000  90.0000 14.98995063    10
CTC2_L_00154017-01
1 10064U 23613UX  26075.70042824  .00000000  00000+0  00000-0 0  9992
2 10064  50.0000 192.0000 0000000   0.0000 192.0000 14.98995063    17
CTC2_L_00154017-02
1 10065U 26562JL  26075.70042824  .00000000  00000+0  00000-0 0  9999
2 10065  50.0000 192.0000 0000000   0.0000 282.0000 14.98995063    18
CTC2_L_00154017-03
1 10066U 24470BQ  26075.70042824  .00000000  00000+0  00000-0 0  9996
2 10066  50.0000 192.0000 0000000   0.0000  12.0000 14.98995063    10
CTC2_L_00154017-04
1 10067U 24133DW  26075.70042824  .00000000  00000+0  00000-0 0  9993
2 10067  50.0000 192.0000 0000000   0.0000 102.0000 14.98995063    11
CTC2_L_00154018-01
1 10068U 25738PU  26075.70042824  .00000000  00000+0  00000-0 0  9996
2 10068  50.0000 204.0000 0000000   0.0000 204.0000 14.98995063    19
CTC2_L_00154018-02
1 10069U 22503QE  26075.70042824  .00000000  00000+0  00000-0 0  9994
2 10069  50.0000 204.0000 0000000   0.0000 294.0000 14.98995063    19
CTC2_L_00154018-03
1 10070U 26785OQ  26075.70042824  .00000000  00000+0  00000-0 0  9992
2 10070  50.0000 204.0000 0000000   0.0000  24.0000 14.98995063    12
CTC2_L_00154018-04
1 10071U 25785SF  26075.70042824  .00000000  00000+0  00000-0 0  9992
2 10071  50.0000 204.0000 0000000   0.0000 114.0000 14.98995063    13
CTC2_L_00154019-01
1 10072U 24548EL  26075.70042824  .00000000  00000+0  00000-0 0  9999
2 10072  50.0000 216.0000 0000000   0.0000 216.0000 14.98995063    10
CTC2_L_00154019-02
1 10073U 25446YH  26075.70042824  .00000000  00000+0  00000-0 0  9998
2 10073  50.0000 216.0000 0000000   0.0000 306.0000 14.98995063    11
CTC2_L_00154019-03
1 10074U 24124RY  26075.70042824  .00000000  00000+0  00000-0 0  9991
2 10074  50.0000 216.0000 0000000   0.0000  36.0000 14.98995063    12
CTC2_L_00154019-04
1 10075U 22066EF  26075.70042824  .00000000  00000+0  00000-0 0  9995
2 10075  50.0000 216.0000 0000000   0.0000 126.0000 14.98995063    13
CTC2_L_00154020-01
1 10076U 24513EV  26075.70042824  .00000000  00000+0  00000-0 0  9995
2 10076  50.0000 228.0000 0000000   0.0000 228.0000 14.98995063    10
CTC2_L_00154020-02
1 10077U 23440MM  26075.70042824  .00000000  00000+0  00000-0 0  9994
2 10077  50.0000 228.0000 0000000   0.0000 318.0000 14.98995063    11
CTC2_L_00154020-03
1 10078U 25355QN  26075.70042824  .00000000  00000+0  00000-0 0  9992
2 10078  50.0000 228.0000 0000000   0.0000  48.0000 14.98995063    12
CTC2_L_00154020-04
1 10079U 25034R   26075.70042824  .00000000  00000+0  00000-0 0  9997
2 10079  50.0000 228.0000 0000000   0.0000 138.0000 14.98995063    13
CTC2_L_00154021-01
1 10080U 24317VI  26075.70042824  .00000000  00000+0  00000-0 0  9992
2 10080  50.0000 240.0000 0000000   0.0000 240.0000 14.98995063    13
CTC2_L_00154021-02
1 10081U 22377BO  26075.70042824  .00000000  00000+0  00000-0 0  9997
2 10081  50.0000 240.0000 0000000   0.0000 330.0000 14.98995063    14
CTC2_L_00154021-03
1 10082U 26759YP  26075.70042824  .00000000  00000+0  00000-0 0  9996
2 10082  50.0000 240.0000 0000000   0.0000  60.0000 14.98995063    15
CTC2_L_00154021-04
1 10083U 23855DY  26075.70042824  .00000000  00000+0  00000-0 0  9991
2 10083  50.0000 240.0000 0000000   0.0000 150.0000 14.98995063    16
CTC2_L_00154022-01
1 10084U 22886KJ  26075.70042824  .00000000  00000+0  00000-0 0  9995
2 10084  50.0000 252.0000 0000000   0.0000 252.0000 14.98995063    13
CTC2_L_00154022-02
1 10085U 26750PC  26075.70042824  .00000000  00000+0  00000-0 0  9990
2 10085  50.0000 252.0000 0000000   0.0000 342.0000 14.98995063    14
CTC2_L_00154022-03
1 10086U 24903SH  26075.70042824  .00000000  00000+0  00000-0 0  9999
2 10086  50.0000 252.0000 0000000   0.0000  72.0000 14.98995063    15
CTC2_L_00154022-04
1 10087U 24355NO  26075.70042824  .00000000  00000+0  00000-0 0  9991
2 10087  50.0000 252.0000 0000000   0.0000 162.0000 14.98995063    16
CTC2_L_00154023-01
1 10088U 26119ZW  26075.70042824  .00000000  00000+0  00000-0 0  9992
2 10088  50.0000 264.0000 0000000   0.0000 264.0000 14.98995063    13
CTC2_L_00154023-02
1 10089U 22042GT  26075.70042824  .00000000  00000+0  00000-0 0  9994
2 10089  50.0000 264.0000 0000000   0.0000 354.0000 14.98995063    14
CTC2_L_00154023-03
1 10090U 25458UY  26075.70042824  .00000000  00000+0  00000-0 0  9990
2 10090  50.0000 264.0000 0000000   0.0000  84.0000 14.98995063    16
CTC2_L_00154023-04
1 10091U 24340G   26075.70042824  .00000000  00000+0  00000-0 0  9990
2 10091  50.0000 264.0000 0000000   0.0000 174.0000 14.98995063    17
CTC2_L_00154024-01
1 10092U 26584GY  26075.70042824  .00000000  00000+0  00000-0 0  9993
2 10092  50.0000 276.0000 0000000   0.0000 276.0000 14.98995063    14
CTC2_L_00154024-02
1 10093U 24904LL  26075.70042824  .00000000  00000+0  00000-0 0  9998
2 10093  50.0000 276.0000 0000000   0.0000   6.0000 14.98995063    16
CTC2_L_00154024-03
1 10094U 26956JW  26075.70042824  .00000000  00000+0  00000-0 0  9998
2 10094  50.0000 276.0000 0000000   0.0000  96.0000 14.98995063    16
CTC2_L_00154024-04
1 10095U 26810FK  26075.70042824  .00000000  00000+0  00000-0 0  9998
2 10095  50.0000 276.0000 0000000   0.0000 186.0000 14.98995063    17
CTC2_L_00154025-01
1 10096U 24888YC  26075.70042824  .00000000  00000+0  00000-0 0  9992
2 10096  50.0000 288.0000 0000000   0.0000 288.0000 14.98995063    14
CTC2_L_00154025-02
1 10097U 25899LB  26075.70042824  .00000000  00000+0  00000-0 0  9996
2 10097  50.0000 288.0000 0000000   0.0000  18.0000 14.98995063    16
CTC2_L_00154025-03
1 10098U 26911JO  26075.70042824  .00000000  00000+0  00000-0 0  9993
2 10098  50.0000 288.0000 0000000   0.0000 108.0000 14.98995063    17
CTC2_L_00154025-04
1 10099U 23211YT  26075.70042824  .00000000  00000+0  00000-0 0  9994
2 10099  50.0000 288.0000 0000000   0.0000 198.0000 14.98995063    17
CTC2_L_00154026-01
1 10100U 26703VJ  26075.70042824  .00000000  00000+0  00000-0 0  9996
2 10100  50.0000 300.0000 0000000   0.0000 300.0000 14.98995063    10
CTC2_L_00154026-02
1 10101U 24814ZL  26075.70042824  .00000000  00000+0  00000-0 0  9998
2 10101  50.0000 300.0000 0000000   0.0000  30.0000 14.98995063    11
CTC2_L_00154026-03
1 10102U 26980AM  26075.70042824  .00000000  00000+0  00000-0 0  9995
2 10102  50.0000 300.0000 0000000   0.0000 120.0000 14.98995063    12
CTC2_L_00154026-04
1 10103U 24806AN  26075.70042824  .00000000  00000+0  00000-0 0  9991
2 10103  50.0000 300.0000 0000000   0.0000 210.0000 14.98995063    13
CTC2_L_00154027-01
1 10104U 26339FT  26075.70042824  .00000000  00000+0  00000-0 0  9995
2 10104  50.0000 312.0000 0000000   0.0000 312.0000 14.98995063    10
CTC2_L_00154027-02
1 10105U 23360ZD  26075.70042824  .00000000  00000+0  00000-0 0  9997
2 10105  50.0000 312.0000 0000000   0.0000  42.0000 14.98995063    11
CTC2_L_00154027-03
1 10106U 26116IM  26075.70042824  .00000000  00000+0  00000-0 0  9990
2 10106  50.0000 312.0000 0000000   0.0000 132.0000 14.98995063    12
CTC2_L_00154027-04
1 10107U 23309WF  26075.70042824  .00000000  00000+0  00000-0 0  9992
2 10107  50.0000 312.0000 0000000   0.0000 222.0000 14.98995063    13
CTC2_L_00154028-01
1 10108U 24847FN  26075.70042824  .00000000  00000+0  00000-0 0  9991
2 10108  50.0000 324.0000 0000000   0.0000 324.0000 14.98995063    10
CTC2_L_00154028-02
1 10109U 23485AW  26075.70042824  .00000000  00000+0  00000-0 0  9999
2 10109  50.0000 324.0000 0000000   0.0000  54.0000 14.98995063    11
CTC2_L_00154028-03
1 10110U 23344JZ  26075.70042824  .00000000  00000+0  00000-0 0  9995
2 10110  50.0000 324.0000 0000000   0.0000 144.0000 14.98995063    13
CTC2_L_00154028-04
1 10111U 24572KX  26075.70042824  .00000000  00000+0  00000-0 0  9990
2 10111  50.0000 324.0000 0000000   0.0000 234.0000 14.98995063    14
CTC2_L_00154029-01
1 10112U 26394XY  26075.70042824  .00000000  00000+0  00000-0 0  9995
2 10112  50.0000 336.0000 0000000   0.0000 336.0000 14.98995063    11
CTC2_L_00154029-02
1 10113U 26531IY  26075.70042824  .00000000  00000+0  00000-0 0  9999
2 10113  50.0000 336.0000 0000000   0.0000  66.0000 14.98995063    12
CTC2_L_00154029-03
1 10114U 24401BD  26075.70042824  .00000000  00000+0  00000-0 0  9994
2 10114  50.0000 336.0000 0000000   0.0000 156.0000 14.98995063    13
CTC2_L_00154029-04
1 10115U 24134FQ  26075.70042824  .00000000  00000+0  00000-0 0  9998
2 10115  50.0000 336.0000 0000000   0.0000 246.0000 14.98995063    14
CTC2_L_00154030-01
1 10116U 25483TC  26075.70042824  .00000000  00000+0  00000-0 0  9997
2 10116  50.0000 348.0000 0000000   0.0000 348.0000 14.98995063    11
CTC2_L_00154030-02
1 10117U 26755XW  26075.70042824  .00000000  00000+0  00000-0 0  9991
2 10117  50.0000 348.0000 0000000   0.0000  78.0000 14.98995063    12
CTC2_L_00154030-03
1 10118U 23397HJ  26075.70042824  .00000000  00000+0  00000-0 0  9991
2 10118  50.0000 348.0000 0000000   0.0000 168.0000 14.98995063    13
CTC2_L_00154030-04
1 10119U 23209KP  26075.70042824  .00000000  00000+0  00000-0 0  9994
2 10119  50.0000 348.0000 0000000   0.0000 258.0000 14.98995063    14
